NORAD_CAT_ID,OBJECT_NAME,OBJECT_TYPE,EPOCH,MEAN_MOTION,ECCENTRICITY,INCLINATION,RA_OF_ASC_NODE,ARG_OF_PERICENTER,MEAN_ANOMALY,BSTAR,MEAN_MOTION_DOT,MEAN_MOTION_DDOT,TLE_LINE0,TLE_LINE1,TLE_LINE2,SEMIMAJOR_AXIS,PERIOD,APOGEE,PERIGEE,DECAYED
53277.0,STARLINK-4178,PAYLOAD,2023-11-03 14:30:28,15.08842035,0.00016,53.2182,71.7532,92.0963,268.0212,4.4442e-05,4.19e-06,0.0,0 STARLINK-4178,1 53277U 22086AM  23307.60450181  .00000419  00000-0  44442-4 0  9998,2 53277  53.2182  71.7532 0001600  92.0963 268.0212 15.08842035 71801,6917.874,95.437,540.846,538.632,0.0
53277.0,STARLINK-4178,PAYLOAD,2023-11-03 16:05:52,15.08842971,0.0001679,53.2183,71.4571,70.8279,289.2895,0.00011836,1.596e-05,0.0,0 STARLINK-4178,1 53277U 22086AM  23307.67074305  .00001596  00000-0  11836-3 0  9992,2 53277  53.2183  71.4571 0001679  70.8279 289.2895 15.08842971 71814,6917.871,95.437,540.898,538.575,0.0
53277.0,STARLINK-4178,PAYLOAD,2023-11-04 14:21:15,15.08846595,0.0001604,53.2184,67.2925,92.6011,267.5164,7.7184e-05,9.41e-06,0.0,0 STARLINK-4178,1 53277U 22086AM  23308.59810029  .00000941  00000-0  77184-4 0  9997,2 53277  53.2184  67.2925 0001604  92.6011 267.5164 15.08846595 71954,6917.86,95.437,540.835,538.616,0.0
53277.0,STARLINK-4178,PAYLOAD,2023-11-05 14:12:02,15.08857614,0.0001523,53.2185,62.8326,79.3446,280.7718,0.00028389,4.235e-05,0.0,0 STARLINK-4178,1 53277U 22086AM  23309.59169520  .00004235  00000-0  28389-3 0  9993,2 53277  53.2185  62.8326 0001523  79.3446 280.7718 15.08857614 72109,6917.827,95.436,540.745,538.638,0.0
53277.0,STARLINK-4178,PAYLOAD,2023-11-06 10:52:03,15.08854403,0.0001221,53.2162,58.9664,86.6355,273.4776,0.00031919,4.798e-05,0.0,0 STARLINK-4178,1 53277U 22086AM  23310.45281487  .00004798  00000-0  31919-3 0  9994,2 53277  53.2162  58.9664 0001221  86.6355 273.4776 15.08854403 72061,6917.836,95.437,540.546,538.857,0.0
53277.0,STARLINK-4178,PAYLOAD,2023-11-06 14:02:50,15.08810682,0.0001499,53.2172,58.3731,92.4724,267.644,-0.00080946,-0.00013137,0.0,0 STARLINK-4178,1 53277U 22086AM  23310.58530280 -.00013137  00000-0 -80946-3 0  9999,2 53277  53.2172  58.3731 0001499  92.4724 267.6440 15.08810682 72258,6917.97,95.439,540.872,538.798,0.0
53277.0,STARLINK-4178,PAYLOAD,2023-11-07 10:42:52,15.08821505,0.0001662,53.2176,54.5053,102.9685,257.1493,0.00046394,7.1e-05,0.0,0 STARLINK-4178,1 53277U 22086AM  23311.44644358  .00007100  00000-0  46394-3 0  9997,2 53277  53.2176  54.5053 0001662 102.9685 257.1493 15.08821505 72216,6917.937,95.439,540.952,538.652,0.0
53277.0,STARLINK-4178,PAYLOAD,2023-11-07 13:53:39,15.08821925,0.0001761,53.2184,53.9112,107.7565,252.362,0.00046537,7.122e-05,0.0,0 STARLINK-4178,1 53277U 22086AM  23311.57892604  .00007122  00000-0  46537-3 0  9993,2 53277  53.2184  53.9112 0001761 107.7565 252.3620 15.08821925 72400,6917.936,95.439,541.019,538.582,0.0
53277.0,STARLINK-4178,PAYLOAD,2023-11-08 12:09:03,15.08839499,0.0001678,53.2176,49.7493,102.0544,258.0637,0.0007624,0.00011866,0.0,0 STARLINK-4178,1 53277U 22086AM  23312.50628823  .00011866  00000-0  76240-3 0  9991,2 53277  53.2176  49.7493 0001678 102.0544 258.0637 15.08839499 72370,6917.882,95.438,540.908,538.586,0.0
53277.0,STARLINK-4178,PAYLOAD,2023-11-08 13:44:26,15.08844001,0.0001719,53.218,49.4522,102.6639,257.4545,0.0008086,0.00012606,0.0,0 STARLINK-4178,1 53277U 22086AM  23312.57252704  .00012606  00000-0  80860-3 0  9995,2 53277  53.2180  49.4522 0001719 102.6639 257.4545 15.08844001 72558,6917.868,95.437,540.922,538.544,0.0
53277.0,STARLINK-4178,PAYLOAD,2023-11-09 13:35:12,15.08857286,0.0001759,53.219,44.9933,96.7229,263.3964,0.00030651,4.596e-05,0.0,0 STARLINK-4178,1 53277U 22086AM  23313.56611680  .00004596  00000-0  30651-3 0  9999,2 53277  53.2190  44.9933 0001759  96.7229 263.3964 15.08857286 72704,6917.828,95.436,540.909,538.476,0.0
53277.0,STARLINK-4178,PAYLOAD,2023-11-10 10:15:13,15.08845538,0.0002099,53.2187,41.1254,88.662,271.4612,-1.1843e-05,-4.77e-06,0.0,0 STARLINK-4178,1 53277U 22086AM  23314.42723621 -.00000477  00000-0 -11843-4 0  9993,2 53277  53.2187  41.1254 0002099  88.6620 271.4612 15.08845538 72660,6917.863,95.437,541.181,538.276,0.0
53277.0,STARLINK-4178,PAYLOAD,2023-11-10 13:25:59,15.08848457,0.0001524,53.2178,40.5295,86.0698,274.0468,3.9914e-05,3.47e-06,0.0,0 STARLINK-4178,1 53277U 22086AM  23314.55971411  .00000347  00000-0  39914-4 0  9992,2 53277  53.2178  40.5295 0001524  86.0698 274.0468 15.08848457 72859,6917.855,95.437,540.774,538.665,0.0
53277.0,STARLINK-4178,PAYLOAD,2023-11-11 11:41:23,15.08844701,0.0001356,53.2165,36.3686,88.4252,271.6895,4.4578e-05,4.22e-06,0.0,0 STARLINK-4178,1 53277U 22086AM  23315.48707455  .00000422  00000-0  44578-4 0  9996,2 53277  53.2165  36.3686 0001356  88.4252 271.6895 15.08844701 72829,6917.866,95.437,540.669,538.793,0.0
53277.0,STARLINK-4178,PAYLOAD,2023-11-11 13:16:46,15.08850036,0.0001355,53.2171,36.0713,92.941,267.1737,1.5427e-05,-4.2e-07,0.0,0 STARLINK-4178,1 53277U 22086AM  23315.55331133 -.00000042  00000-0  15427-4 0  9990,2 53277  53.2171  36.0713 0001355  92.9410 267.1737 15.08850036 73003,6917.85,95.437,540.652,538.777,0.0
53277.0,STARLINK-4178,PAYLOAD,2023-11-12 11:32:10,15.08840749,0.0001521,53.2173,31.9075,90.1329,269.9837,9.7074e-05,1.257e-05,0.0,0 STARLINK-4178,1 53277U 22086AM  23316.48067748  .00001257  00000-0  97074-4 0  9997,2 53277  53.2173  31.9075 0001521  90.1329 269.9837 15.08840749 72970,6917.878,95.438,540.795,538.691,0.0
53277.0,STARLINK-4178,PAYLOAD,2023-11-13 11:22:56,15.08857209,0.0001408,53.218,27.4454,95.1219,264.9934,0.00022011,3.218e-05,0.0,0 STARLINK-4178,1 53277U 22086AM  23317.47426554  .00003218  00000-0  22011-3 0  9998,2 53277  53.2180  27.4454 0001408  95.1219 264.9934 15.08857209 73126,6917.828,95.436,540.667,538.719,0.0
53277.0,STARLINK-4178,PAYLOAD,2023-11-14 11:13:44,15.08837343,0.000152,53.2188,22.9826,102.6858,257.4304,0.00011614,1.561e-05,0.0,0 STARLINK-4178,1 53277U 22086AM  23318.46787634  .00001561  00000-0  11614-3 0  9993,2 53277  53.2188  22.9826 0001520 102.6858 257.4304 15.08837343 73276,6917.889,95.438,540.805,538.702,0.0
53277.0,STARLINK-4178,PAYLOAD,2023-11-15 11:04:31,15.08843111,0.0001537,53.2181,18.5245,97.4031,262.7136,1.722e-05,-1.4e-07,0.0,0 STARLINK-4178,1 53277U 22086AM  23319.46147406 -.00000014  00000-0  17220-4 0  9994,2 53277  53.2181  18.5245 0001537  97.4031 262.7136 15.08843111 73594,6917.871,95.437,540.799,538.673,0.0
53277.0,STARLINK-4178,PAYLOAD,2023-11-16 02:58:23,15.08836739,0.0001601,53.2186,15.5545,101.1224,258.9948,0.0001666,2.364e-05,0.0,0 STARLINK-4178,1 53277U 22086AM  23320.12387913  .00002364  00000-0  16660-3 0  9993,2 53277  53.2186  15.5545 0001601 101.1224 258.9948 15.08836739 73527,6917.89,95.438,540.863,538.648,0.0
53277.0,STARLINK-4178,PAYLOAD,2023-11-16 12:30:41,15.08839225,0.0001592,53.2186,13.7695,100.4165,259.7007,0.00015786,2.225e-05,0.0,0 STARLINK-4178,1 53277U 22086AM  23320.52131844  .00002225  00000-0  15786-3 0  9991,2 53277  53.2186  13.7695 0001592 100.4165 259.7007 15.08839225 73751,6917.883,95.438,540.849,538.646,0.0
53277.0,STARLINK-4178,PAYLOAD,2023-11-16 20:27:37,15.08838019,0.0001599,53.2188,12.2836,99.6629,260.4544,0.00012638,1.724e-05,0.0,0 STARLINK-4178,1 53277U 22086AM  23320.85251976  .00001724  00000-0  12638-3 0  9992,2 53277  53.2188  12.2836 0001599  99.6629 260.4544 15.08838019 73806,6917.886,95.438,540.858,538.645,0.0
53277.0,STARLINK-4178,PAYLOAD,2023-11-17 10:46:06,15.088287,0.0001602,53.2198,9.6073,94.5666,265.551,0.00021198,3.086e-05,0.0,0 STARLINK-4178,1 53277U 22086AM  23321.44868761  .00003086  00000-0  21198-3 0  9998,2 53277  53.2198   9.6073 0001602  94.5666 265.5510 15.08828700 73726,6917.915,95.438,540.888,538.672,0.0
53277.0,STARLINK-4178,PAYLOAD,2023-11-17 13:56:52,15.08839218,0.0001549,53.2194,9.0103,94.307,265.8099,8.8137e-05,1.115e-05,0.0,0 STARLINK-4178,1 53277U 22086AM  23321.58116286  .00001115  00000-0  88137-4 0  9999,2 53277  53.2194   9.0103 0001549  94.3070 265.8099 15.08839218 73919,6917.883,95.438,540.819,538.676,0.0
53277.0,STARLINK-4178,PAYLOAD,2023-11-17 20:18:25,15.08838586,0.0001611,53.2197,7.8202,85.7638,274.3539,5.2269e-05,5.44e-06,0.0,0 STARLINK-4178,1 53277U 22086AM  23321.84612438  .00000544  00000-0  52269-4 0  9990,2 53277  53.2197   7.8202 0001611  85.7638 274.3539 15.08838586 73957,6917.885,95.438,540.864,538.635,0.0
53277.0,STARLINK-4178,PAYLOAD,2023-11-18 09:01:29,15.08844023,0.000159,53.2195,5.4411,86.5616,273.5558,8.3263e-05,1.038e-05,0.0,0 STARLINK-4178,1 53277U 22086AM  23322.37604092  .00001038  00000-0  83263-4 0  9993,2 53277  53.2195   5.4411 0001590  86.5616 273.5558 15.08844023 74037,6917.868,95.437,540.833,538.633,0.0
53277.0,STARLINK-4178,PAYLOAD,2023-11-18 20:09:11,15.0884225,0.0001688,53.2199,3.3595,84.7346,275.3839,6.3949e-05,7.3e-06,0.0,0 STARLINK-4178,1 53277U 22086AM  23322.83972144  .00000730  00000-0  63949-4 0  9997,2 53277  53.2199   3.3595 0001688  84.7346 275.3839 15.08842250 74109,6917.874,95.437,540.906,538.571,0.0
53277.0,STARLINK-4178,PAYLOAD,2023-11-19 12:03:02,15.08846831,0.0001471,53.2183,0.3852,88.4048,271.7113,0.00012531,1.707e-05,0.0,0 STARLINK-4178,1 53277U 22086AM  23323.50211664  .00001707  00000-0  12531-3 0  9990,2 53277  53.2183   0.3852 0001471  88.4048 271.7113 15.08846831 74200,6917.86,95.437,540.742,538.707,0.0
53277.0,STARLINK-4178,PAYLOAD,2023-11-19 19:59:58,15.0884196,0.0001507,53.2185,358.8984,89.6576,270.4589,7.8886e-05,9.68e-06,0.0,0 STARLINK-4178,1 53277U 22086AM  23323.83332031  .00000968  00000-0  78886-4 0  9992,2 53277  53.2185 358.8984 0001507  89.6576 270.4589 15.08841960 74254,6917.874,95.437,540.782,538.697,0.0
53277.0,STARLINK-4178,PAYLOAD,2023-11-20 02:21:31,15.08839016,0.0001432,53.218,357.7097,90.109,270.0066,5.859e-05,6.45e-06,0.0,0 STARLINK-4178,1 53277U 22086AM  23324.09828165  .00000645  00000-0  58590-4 0  9991,2 53277  53.2180 357.7097 0001432  90.1090 270.0066 15.08839016 74128,6917.883,95.438,540.739,538.758,0.0
